{
 "generated_at": "2026-07-19T07:26:41Z",
 "sources": [
  {
   "name": "CelesTrak",
   "url": "https://celestrak.org/NORAD/elements/",
   "license": "frei verfügbar; Attribution. Ursprünglich USSPACECOM/Space-Track."
  },
  {
   "name": "GCAT (J. McDowell, planet4589.org)",
   "url": "https://planet4589.org/space/gcat/",
   "license": "CC-BY 4.0"
  }
 ],
 "satellites": [
  {
   "norad": 60542,
   "name": "QPS-SAR-8 (AMATERU-IV)",
   "intl": "2024-149CC",
   "group": "sar",
   "gcat": {
    "class": "B",
    "category": "IMG-R",
    "owner": "QPS",
    "state": "J"
   },
   "omm": {
    "OBJECT_NAME": "QPS-SAR-8 (AMATERU-IV)",
    "OBJECT_ID": "2024-149CC",
    "EPOCH": "2026-07-18T18:57:24.696288",
    "MEAN_MOTION": 15.04409378,
    "ECCENTRICITY": 0.0003203,
    "INCLINATION": 97.6646,
    "RA_OF_ASC_NODE": 278.6793,
    "ARG_OF_PERICENTER": 31.1422,
    "MEAN_ANOMALY": 328.9993,
    "EPHEMERIS_TYPE": 0,
    "CLASSIFICATION_TYPE": "U",
    "NORAD_CAT_ID": 60542,
    "ELEMENT_SET_NO": 999,
    "REV_AT_EPOCH": 10502,
    "BSTAR": 0.00013968,
    "MEAN_MOTION_DOT": 0.00001889,
    "MEAN_MOTION_DDOT": 0
   }
  },
  {
   "norad": 63205,
   "name": "QPS-SAR-9 (SUSANOO-I)",
   "intl": "2025-050A",
   "group": "sar",
   "gcat": {
    "class": "B",
    "category": "IMG-R",
    "owner": "QPS",
    "state": "J"
   },
   "omm": {
    "OBJECT_NAME": "QPS-SAR-9 (SUSANOO-I)",
    "OBJECT_ID": "2025-050A",
    "EPOCH": "2026-07-18T14:40:20.042112",
    "MEAN_MOTION": 15.03411449,
    "ECCENTRICITY": 0.0004827,
    "INCLINATION": 42.0196,
    "RA_OF_ASC_NODE": 288.5558,
    "ARG_OF_PERICENTER": 342.9582,
    "MEAN_ANOMALY": 17.1083,
    "EPHEMERIS_TYPE": 0,
    "CLASSIFICATION_TYPE": "U",
    "NORAD_CAT_ID": 63205,
    "ELEMENT_SET_NO": 999,
    "REV_AT_EPOCH": 7369,
    "BSTAR": 0.00015939,
    "MEAN_MOTION_DOT": 0.00002016,
    "MEAN_MOTION_DDOT": 0
   }
  },
  {
   "norad": 32382,
   "name": "RADARSAT-2",
   "intl": "2007-061A",
   "group": "resource",
   "gcat": {
    "class": "C",
    "category": "IMG-R",
    "owner": "CSA",
    "state": "CA"
   },
   "omm": {
    "OBJECT_NAME": "RADARSAT-2",
    "OBJECT_ID": "2007-061A",
    "EPOCH": "2026-07-18T20:59:21.579648",
    "MEAN_MOTION": 14.29982948,
    "ECCENTRICITY": 0.0001329,
    "INCLINATION": 98.5783,
    "RA_OF_ASC_NODE": 206.3549,
    "ARG_OF_PERICENTER": 85.0497,
    "MEAN_ANOMALY": 275.0837,
    "EPHEMERIS_TYPE": 0,
    "CLASSIFICATION_TYPE": "U",
    "NORAD_CAT_ID": 32382,
    "ELEMENT_SET_NO": 999,
    "REV_AT_EPOCH": 97048,
    "BSTAR": -0.000062056,
    "MEAN_MOTION_DOT": -0.00000204,
    "MEAN_MOTION_DDOT": 0
   }
  },
  {
   "norad": 37791,
   "name": "RASAT",
   "intl": "2011-044D",
   "group": "resource",
   "gcat": {
    "class": null,
    "category": null,
    "owner": null,
    "state": null
   },
   "omm": {
    "OBJECT_NAME": "RASAT",
    "OBJECT_ID": "2011-044D",
    "EPOCH": "2026-07-18T21:03:33.583392",
    "MEAN_MOTION": 14.68194863,
    "ECCENTRICITY": 0.0021963,
    "INCLINATION": 98.058,
    "RA_OF_ASC_NODE": 290.7912,
    "ARG_OF_PERICENTER": 91.7275,
    "MEAN_ANOMALY": 18.2218,
    "EPHEMERIS_TYPE": 0,
    "CLASSIFICATION_TYPE": "U",
    "NORAD_CAT_ID": 37791,
    "ELEMENT_SET_NO": 999,
    "REV_AT_EPOCH": 79783,
    "BSTAR": 0.000048163,
    "MEAN_MOTION_DOT": 0.00000229,
    "MEAN_MOTION_DDOT": 0
   }
  },
  {
   "norad": 44322,
   "name": "RCM-1",
   "intl": "2019-033A",
   "group": "sar",
   "gcat": {
    "class": "C",
    "category": "IMG-R",
    "owner": "CSA",
    "state": "CA"
   },
   "omm": {
    "OBJECT_NAME": "RCM-1",
    "OBJECT_ID": "2019-033A",
    "EPOCH": "2026-07-18T20:47:23.104896",
    "MEAN_MOTION": 14.92590107,
    "ECCENTRICITY": 0.0001512,
    "INCLINATION": 97.7604,
    "RA_OF_ASC_NODE": 206.8659,
    "ARG_OF_PERICENTER": 92.9107,
    "MEAN_ANOMALY": 26.0085,
    "EPHEMERIS_TYPE": 0,
    "CLASSIFICATION_TYPE": "U",
    "NORAD_CAT_ID": 44322,
    "ELEMENT_SET_NO": 999,
    "REV_AT_EPOCH": 38680,
    "BSTAR": 0.000048223,
    "MEAN_MOTION_DOT": 0.0000044,
    "MEAN_MOTION_DDOT": 0
   }
  },
  {
   "norad": 44324,
   "name": "RCM-2",
   "intl": "2019-033C",
   "group": "sar",
   "gcat": {
    "class": "C",
    "category": "IMG-R",
    "owner": "CSA",
    "state": "CA"
   },
   "omm": {
    "OBJECT_NAME": "RCM-2",
    "OBJECT_ID": "2019-033C",
    "EPOCH": "2026-07-18T19:43:31.882656",
    "MEAN_MOTION": 14.92589636,
    "ECCENTRICITY": 0.0001535,
    "INCLINATION": 97.7605,
    "RA_OF_ASC_NODE": 206.8669,
    "ARG_OF_PERICENTER": 91.9207,
    "MEAN_ANOMALY": 268.2188,
    "EPHEMERIS_TYPE": 0,
    "CLASSIFICATION_TYPE": "U",
    "NORAD_CAT_ID": 44324,
    "ELEMENT_SET_NO": 999,
    "REV_AT_EPOCH": 38680,
    "BSTAR": 0.000044194,
    "MEAN_MOTION_DOT": 0.00000399,
    "MEAN_MOTION_DDOT": 0
   }
  },
  {
   "norad": 44323,
   "name": "RCM-3",
   "intl": "2019-033B",
   "group": "sar",
   "gcat": {
    "class": "C",
    "category": "IMG-R",
    "owner": "CSA",
    "state": "CA"
   },
   "omm": {
    "OBJECT_NAME": "RCM-3",
    "OBJECT_ID": "2019-033B",
    "EPOCH": "2026-07-18T20:48:05.219712",
    "MEAN_MOTION": 14.92588344,
    "ECCENTRICITY": 0.0001512,
    "INCLINATION": 97.7602,
    "RA_OF_ASC_NODE": 206.9606,
    "ARG_OF_PERICENTER": 92.6291,
    "MEAN_ANOMALY": 267.5102,
    "EPHEMERIS_TYPE": 0,
    "CLASSIFICATION_TYPE": "U",
    "NORAD_CAT_ID": 44323,
    "ELEMENT_SET_NO": 999,
    "REV_AT_EPOCH": 38682,
    "BSTAR": -0.000022161,
    "MEAN_MOTION_DOT": -0.00000284,
    "MEAN_MOTION_DDOT": 0
   }
  },
  {
   "norad": 37387,
   "name": "RESOURCESAT-2",
   "intl": "2011-015A",
   "group": "resource",
   "gcat": {
    "class": null,
    "category": "IMG",
    "owner": "ISRO",
    "state": "IN"
   },
   "omm": {
    "OBJECT_NAME": "RESOURCESAT-2",
    "OBJECT_ID": "2011-015A",
    "EPOCH": "2026-07-18T19:57:37.228032",
    "MEAN_MOTION": 14.21600063,
    "ECCENTRICITY": 0.0011769,
    "INCLINATION": 98.7629,
    "RA_OF_ASC_NODE": 267.0522,
    "ARG_OF_PERICENTER": 160.9807,
    "MEAN_ANOMALY": 199.1811,
    "EPHEMERIS_TYPE": 0,
    "CLASSIFICATION_TYPE": "U",
    "NORAD_CAT_ID": 37387,
    "ELEMENT_SET_NO": 999,
    "REV_AT_EPOCH": 79067,
    "BSTAR": 0.00003172,
    "MEAN_MOTION_DOT": 2.5e-7,
    "MEAN_MOTION_DDOT": 0
   }
  },
  {
   "norad": 41877,
   "name": "RESOURCESAT-2A",
   "intl": "2016-074A",
   "group": "resource",
   "gcat": {
    "class": "C",
    "category": "IMG",
    "owner": "ISRO",
    "state": "IN"
   },
   "omm": {
    "OBJECT_NAME": "RESOURCESAT-2A",
    "OBJECT_ID": "2016-074A",
    "EPOCH": "2026-07-18T19:31:06.305952",
    "MEAN_MOTION": 14.21609994,
    "ECCENTRICITY": 0.0002178,
    "INCLINATION": 98.7515,
    "RA_OF_ASC_NODE": 273.0574,
    "ARG_OF_PERICENTER": 19.5923,
    "MEAN_ANOMALY": 340.5337,
    "EPHEMERIS_TYPE": 0,
    "CLASSIFICATION_TYPE": "U",
    "NORAD_CAT_ID": 41877,
    "ELEMENT_SET_NO": 999,
    "REV_AT_EPOCH": 49879,
    "BSTAR": 0.00010097,
    "MEAN_MOTION_DOT": 0.00000177,
    "MEAN_MOTION_DDOT": 0
   }
  },
  {
   "norad": 29228,
   "name": "RESURS-DK 1",
   "intl": "2006-021A",
   "group": "resource",
   "gcat": {
    "class": null,
    "category": null,
    "owner": null,
    "state": null
   },
   "omm": {
    "OBJECT_NAME": "RESURS-DK 1",
    "OBJECT_ID": "2006-021A",
    "EPOCH": "2026-07-18T13:34:06.913920",
    "MEAN_MOTION": 15.13325666,
    "ECCENTRICITY": 0.0007303,
    "INCLINATION": 69.9303,
    "RA_OF_ASC_NODE": 258.3198,
    "ARG_OF_PERICENTER": 267.328,
    "MEAN_ANOMALY": 92.705,
    "EPHEMERIS_TYPE": 0,
    "CLASSIFICATION_TYPE": "U",
    "NORAD_CAT_ID": 29228,
    "ELEMENT_SET_NO": 999,
    "REV_AT_EPOCH": 10732,
    "BSTAR": 0.000054664,
    "MEAN_MOTION_DOT": 0.00000867,
    "MEAN_MOTION_DDOT": 0
   }
  }
 ]
}
